[{"OBJECT_NAME":"STARLINK-34325","OBJECT_ID":"2025-120G","EPOCH":"2026-03-09T10:26:18.548160","MEAN_MOTION":15.30188654,"ECCENTRICITY":0.00011022,"INCLINATION":53.1572,"RA_OF_ASC_NODE":118.1242,"ARG_OF_PERICENTER":91.8353,"MEAN_ANOMALY":268.2774,"EPHEMERIS_TYPE":0,"CLASSIFICATION_TYPE":"U","NORAD_CAT_ID":64262,"ELEMENT_SET_NO":999,"REV_AT_EPOCH":4387,"BSTAR":0.00078371559,"MEAN_MOTION_DOT":0.00022916,"MEAN_MOTION_DDOT":0},{"OBJECT_NAME":"OBJECT BD","OBJECT_ID":"2025-313BD","EPOCH":"2026-03-09T15:06:44.992224","MEAN_MOTION":15.3000236,"ECCENTRICITY":0.00072867,"INCLINATION":97.397,"RA_OF_ASC_NODE":145.285,"ARG_OF_PERICENTER":333.4514,"MEAN_ANOMALY":26.6352,"EPHEMERIS_TYPE":0,"CLASSIFICATION_TYPE":"U","NORAD_CAT_ID":67299,"ELEMENT_SET_NO":999,"REV_AT_EPOCH":1083,"BSTAR":0.0027633805,"MEAN_MOTION_DOT":0.0008101,"MEAN_MOTION_DDOT":0}]
