STARLINK-34325          
1 64262U 25120G   26068.43493690  .00022916  00000+0  78372-3 0  9999
2 64262  53.1572 118.1242 0001102  91.8353 268.2774 15.30188654 43876
2025-313BD              
1 67299U 25313BD  26068.62968741  .00081010  00000+0  27634-2 0  9995
2 67299  97.3970 145.2850 0007287 333.4514  26.6352 15.30002360 10838
